[{"OBJECT_NAME":"BANE","OBJECT_ID":"2023-185D","EPOCH":"2026-03-09T22:38:54.916224","MEAN_MOTION":15.6846319,"ECCENTRICITY":0.00050193,"INCLINATION":97.3445,"RA_OF_ASC_NODE":151.472,"ARG_OF_PERICENTER":176.385,"MEAN_ANOMALY":183.7448,"EPHEMERIS_TYPE":0,"CLASSIFICATION_TYPE":"U","NORAD_CAT_ID":58465,"ELEMENT_SET_NO":999,"REV_AT_EPOCH":12713,"BSTAR":0.00097597303,"MEAN_MOTION_DOT":0.00111172,"MEAN_MOTION_DDOT":0},{"OBJECT_NAME":"STARLINK-11227 [DTC]","OBJECT_ID":"2024-133C","EPOCH":"2026-03-09T12:06:50.963328","MEAN_MOTION":15.69710491,"ECCENTRICITY":8.061e-5,"INCLINATION":53.157,"RA_OF_ASC_NODE":147.2414,"ARG_OF_PERICENTER":84.5659,"MEAN_ANOMALY":275.545,"EPHEMERIS_TYPE":0,"CLASSIFICATION_TYPE":"U","NORAD_CAT_ID":60303,"ELEMENT_SET_NO":999,"REV_AT_EPOCH":9378,"BSTAR":0.00016321729,"MEAN_MOTION_DOT":0.00019231,"MEAN_MOTION_DDOT":0}]
